STARLINK-35775          
1 67038U 25294J   25356.25002315 -.01894929  00000+0 -95111-2 0  9997
2 67038  42.9999 123.9223 0001382 272.8077 243.4440 15.83687540  1758
STARLINK-35705          
1 67039U 25294K   25356.25002315 -.01901097  00000+0 -95532-2 0  9990
2 67039  42.9999 123.9114 0001342 272.5750 248.0999 15.83673612  1642
STARLINK-35786          
1 67040U 25294L   25356.25002315 -.01897656  00000+0 -95326-2 0  9998
2 67040  43.0001 123.9168 0001242 271.4082 247.1499 15.83676627  1648
STARLINK-35765          
1 67041U 25294M   25356.25002315 -.01898123  00000+0 -95388-2 0  9997
2 67041  42.9999 123.9062 0001299 273.9809 248.7394 15.83668273  1641
STARLINK-35773          
1 67042U 25294N   25356.25002315 -.01903882  00000+0 -95760-2 0  9991
2 67042  42.9999 123.9006 0001307 275.7492 249.2011 15.83659474  1834
STARLINK-35901          
1 67043U 25294P   25356.25002315 -.01898111  00000+0 -95489-2 0  9998
2 67043  42.9999 123.8951 0001303 271.8274 255.3319 15.83646160  1831
STARLINK-35884          
1 67044U 25294Q   25356.25002315 -.01904805  00000+0 -95883-2 0  9995
2 67044  43.0001 123.8896 0001300 274.1850 255.1154 15.83644609  1830
STARLINK-35891          
1 67045U 25294R   25356.25002315 -.01912628  00000+0 -96420-2 0  9996
2 67045  43.0000 123.8831 0001131 266.9692 264.8590 15.83628532  1753
STARLINK-35721          
1 67046U 25294S   25356.25002315 -.01907099  00000+0 -96198-2 0  9995
2 67046  43.0003 123.8773 0001081 263.6093 270.5290 15.83607910  1832
STARLINK-35779          
1 67047U 25294T   25356.25002315 -.01910382  00000+0 -96474-2 0  9992
2 67047  43.0000 123.8712 0001047 270.3417 266.3194 15.83589922  1647
STARLINK-35905          
1 67048U 25294U   25356.25002315 -.01820067  00000+0 -91693-2 0  9991
2 67048  43.0002 123.8660 0000941 271.0652 267.6477 15.83495278  1753
STARLINK-35877          
1 67049U 25294V   25356.25002315 -.01921721  00000+0 -97181-2 0  9999
2 67049  43.0004 123.8601 0001104 267.2606 273.8016 15.83578990  1839
