CCSDS_OMM_VERS = 2.0
CREATION_DATE  = 
ORIGINATOR     = 

OBJECT_NAME    = STARLINK-35775
OBJECT_ID      = 2025-294J
CENTER_NAME    = EARTH
REF_FRAME      = TEME
TIME_SYSTEM    = UTC
MEAN_ELEMENT_THEORY = SGP/SGP4

EPOCH          = 2025-12-22T06:00:02.000160
MEAN_MOTION    = 15.83687540
ECCENTRICITY   = .0001382
INCLINATION    = 42.9999
RA_OF_ASC_NODE = 123.9223
ARG_OF_PERICENTER = 272.8077
MEAN_ANOMALY   = 243.4440

EPHEMERIS_TYPE = 0
CLASSIFICATION_TYPE = U
NORAD_CAT_ID   = 67038
ELEMENT_SET_NO = 999
REV_AT_EPOCH   = 175
BSTAR          = -.9511056E-2
MEAN_MOTION_DOT = -.1894929E-1
MEAN_MOTION_DDOT = 0

CCSDS_OMM_VERS = 2.0
CREATION_DATE  = 
ORIGINATOR     = 

OBJECT_NAME    = STARLINK-35705
OBJECT_ID      = 2025-294K
CENTER_NAME    = EARTH
REF_FRAME      = TEME
TIME_SYSTEM    = UTC
MEAN_ELEMENT_THEORY = SGP/SGP4

EPOCH          = 2025-12-22T06:00:02.000160
MEAN_MOTION    = 15.83673612
ECCENTRICITY   = .00013428
INCLINATION    = 42.9999
RA_OF_ASC_NODE = 123.9114
ARG_OF_PERICENTER = 272.5750
MEAN_ANOMALY   = 248.0999

EPHEMERIS_TYPE = 0
CLASSIFICATION_TYPE = U
NORAD_CAT_ID   = 67039
ELEMENT_SET_NO = 999
REV_AT_EPOCH   = 164
BSTAR          = -.9553248E-2
MEAN_MOTION_DOT = -.1901097E-1
MEAN_MOTION_DDOT = 0

CCSDS_OMM_VERS = 2.0
CREATION_DATE  = 
ORIGINATOR     = 

OBJECT_NAME    = STARLINK-35786
OBJECT_ID      = 2025-294L
CENTER_NAME    = EARTH
REF_FRAME      = TEME
TIME_SYSTEM    = UTC
MEAN_ELEMENT_THEORY = SGP/SGP4

EPOCH          = 2025-12-22T06:00:02.000160
MEAN_MOTION    = 15.83676627
ECCENTRICITY   = .00012426
INCLINATION    = 43.0001
RA_OF_ASC_NODE = 123.9168
ARG_OF_PERICENTER = 271.4082
MEAN_ANOMALY   = 247.1499

EPHEMERIS_TYPE = 0
CLASSIFICATION_TYPE = U
NORAD_CAT_ID   = 67040
ELEMENT_SET_NO = 999
REV_AT_EPOCH   = 164
BSTAR          = -.95325751E-2
MEAN_MOTION_DOT = -.1897656E-1
MEAN_MOTION_DDOT = 0

CCSDS_OMM_VERS = 2.0
CREATION_DATE  = 
ORIGINATOR     = 

OBJECT_NAME    = STARLINK-35765
OBJECT_ID      = 2025-294M
CENTER_NAME    = EARTH
REF_FRAME      = TEME
TIME_SYSTEM    = UTC
MEAN_ELEMENT_THEORY = SGP/SGP4

EPOCH          = 2025-12-22T06:00:02.000160
MEAN_MOTION    = 15.83668273
ECCENTRICITY   = .0001299
INCLINATION    = 42.9999
RA_OF_ASC_NODE = 123.9062
ARG_OF_PERICENTER = 273.9809
MEAN_ANOMALY   = 248.7394

EPHEMERIS_TYPE = 0
CLASSIFICATION_TYPE = U
NORAD_CAT_ID   = 67041
ELEMENT_SET_NO = 999
REV_AT_EPOCH   = 164
BSTAR          = -.95387872E-2
MEAN_MOTION_DOT = -.1898123E-1
MEAN_MOTION_DDOT = 0

CCSDS_OMM_VERS = 2.0
CREATION_DATE  = 
ORIGINATOR     = 

OBJECT_NAME    = STARLINK-35773
OBJECT_ID      = 2025-294N
CENTER_NAME    = EARTH
REF_FRAME      = TEME
TIME_SYSTEM    = UTC
MEAN_ELEMENT_THEORY = SGP/SGP4

EPOCH          = 2025-12-22T06:00:02.000160
MEAN_MOTION    = 15.83659474
ECCENTRICITY   = .00013079
INCLINATION    = 42.9999
RA_OF_ASC_NODE = 123.9006
ARG_OF_PERICENTER = 275.7492
MEAN_ANOMALY   = 249.2011

EPHEMERIS_TYPE = 0
CLASSIFICATION_TYPE = U
NORAD_CAT_ID   = 67042
ELEMENT_SET_NO = 999
REV_AT_EPOCH   = 183
BSTAR          = -.95760488E-2
MEAN_MOTION_DOT = -.1903882E-1
MEAN_MOTION_DDOT = 0

CCSDS_OMM_VERS = 2.0
CREATION_DATE  = 
ORIGINATOR     = 

OBJECT_NAME    = STARLINK-35901
OBJECT_ID      = 2025-294P
CENTER_NAME    = EARTH
REF_FRAME      = TEME
TIME_SYSTEM    = UTC
MEAN_ELEMENT_THEORY = SGP/SGP4

EPOCH          = 2025-12-22T06:00:02.000160
MEAN_MOTION    = 15.83646160
ECCENTRICITY   = .00013036
INCLINATION    = 42.9999
RA_OF_ASC_NODE = 123.8951
ARG_OF_PERICENTER = 271.8274
MEAN_ANOMALY   = 255.3319

EPHEMERIS_TYPE = 0
CLASSIFICATION_TYPE = U
NORAD_CAT_ID   = 67043
ELEMENT_SET_NO = 999
REV_AT_EPOCH   = 183
BSTAR          = -.95488665E-2
MEAN_MOTION_DOT = -.1898111E-1
MEAN_MOTION_DDOT = 0

CCSDS_OMM_VERS = 2.0
CREATION_DATE  = 
ORIGINATOR     = 

OBJECT_NAME    = STARLINK-35884
OBJECT_ID      = 2025-294Q
CENTER_NAME    = EARTH
REF_FRAME      = TEME
TIME_SYSTEM    = UTC
MEAN_ELEMENT_THEORY = SGP/SGP4

EPOCH          = 2025-12-22T06:00:02.000160
MEAN_MOTION    = 15.83644609
ECCENTRICITY   = .00013003
INCLINATION    = 43.0001
RA_OF_ASC_NODE = 123.8896
ARG_OF_PERICENTER = 274.1850
MEAN_ANOMALY   = 255.1154

EPHEMERIS_TYPE = 0
CLASSIFICATION_TYPE = U
NORAD_CAT_ID   = 67044
ELEMENT_SET_NO = 999
REV_AT_EPOCH   = 183
BSTAR          = -.95882966E-2
MEAN_MOTION_DOT = -.1904805E-1
MEAN_MOTION_DDOT = 0

CCSDS_OMM_VERS = 2.0
CREATION_DATE  = 
ORIGINATOR     = 

OBJECT_NAME    = STARLINK-35891
OBJECT_ID      = 2025-294R
CENTER_NAME    = EARTH
REF_FRAME      = TEME
TIME_SYSTEM    = UTC
MEAN_ELEMENT_THEORY = SGP/SGP4

EPOCH          = 2025-12-22T06:00:02.000160
MEAN_MOTION    = 15.83628532
ECCENTRICITY   = .00011311
INCLINATION    = 43.0000
RA_OF_ASC_NODE = 123.8831
ARG_OF_PERICENTER = 266.9692
MEAN_ANOMALY   = 264.8590

EPHEMERIS_TYPE = 0
CLASSIFICATION_TYPE = U
NORAD_CAT_ID   = 67045
ELEMENT_SET_NO = 999
REV_AT_EPOCH   = 175
BSTAR          = -.96420088E-2
MEAN_MOTION_DOT = -.1912628E-1
MEAN_MOTION_DDOT = 0

CCSDS_OMM_VERS = 2.0
CREATION_DATE  = 
ORIGINATOR     = 

OBJECT_NAME    = STARLINK-35721
OBJECT_ID      = 2025-294S
CENTER_NAME    = EARTH
REF_FRAME      = TEME
TIME_SYSTEM    = UTC
MEAN_ELEMENT_THEORY = SGP/SGP4

EPOCH          = 2025-12-22T06:00:02.000160
MEAN_MOTION    = 15.83607910
ECCENTRICITY   = .00010811
INCLINATION    = 43.0003
RA_OF_ASC_NODE = 123.8773
ARG_OF_PERICENTER = 263.6093
MEAN_ANOMALY   = 270.5290

EPHEMERIS_TYPE = 0
CLASSIFICATION_TYPE = U
NORAD_CAT_ID   = 67046
ELEMENT_SET_NO = 999
REV_AT_EPOCH   = 183
BSTAR          = -.96198043E-2
MEAN_MOTION_DOT = -.1907099E-1
MEAN_MOTION_DDOT = 0

CCSDS_OMM_VERS = 2.0
CREATION_DATE  = 
ORIGINATOR     = 

OBJECT_NAME    = STARLINK-35779
OBJECT_ID      = 2025-294T
CENTER_NAME    = EARTH
REF_FRAME      = TEME
TIME_SYSTEM    = UTC
MEAN_ELEMENT_THEORY = SGP/SGP4

EPOCH          = 2025-12-22T06:00:02.000160
MEAN_MOTION    = 15.83589922
ECCENTRICITY   = .0001047
INCLINATION    = 43.0000
RA_OF_ASC_NODE = 123.8712
ARG_OF_PERICENTER = 270.3417
MEAN_ANOMALY   = 266.3194

EPHEMERIS_TYPE = 0
CLASSIFICATION_TYPE = U
NORAD_CAT_ID   = 67047
ELEMENT_SET_NO = 999
REV_AT_EPOCH   = 164
BSTAR          = -.96473887E-2
MEAN_MOTION_DOT = -.1910382E-1
MEAN_MOTION_DDOT = 0

CCSDS_OMM_VERS = 2.0
CREATION_DATE  = 
ORIGINATOR     = 

OBJECT_NAME    = STARLINK-35905
OBJECT_ID      = 2025-294U
CENTER_NAME    = EARTH
REF_FRAME      = TEME
TIME_SYSTEM    = UTC
MEAN_ELEMENT_THEORY = SGP/SGP4

EPOCH          = 2025-12-22T06:00:02.000160
MEAN_MOTION    = 15.83495278
ECCENTRICITY   = .00009416
INCLINATION    = 43.0002
RA_OF_ASC_NODE = 123.8660
ARG_OF_PERICENTER = 271.0652
MEAN_ANOMALY   = 267.6477

EPHEMERIS_TYPE = 0
CLASSIFICATION_TYPE = U
NORAD_CAT_ID   = 67048
ELEMENT_SET_NO = 999
REV_AT_EPOCH   = 175
BSTAR          = -.91692589E-2
MEAN_MOTION_DOT = -.1820067E-1
MEAN_MOTION_DDOT = 0

CCSDS_OMM_VERS = 2.0
CREATION_DATE  = 
ORIGINATOR     = 

OBJECT_NAME    = STARLINK-35877
OBJECT_ID      = 2025-294V
CENTER_NAME    = EARTH
REF_FRAME      = TEME
TIME_SYSTEM    = UTC
MEAN_ELEMENT_THEORY = SGP/SGP4

EPOCH          = 2025-12-22T06:00:02.000160
MEAN_MOTION    = 15.83578990
ECCENTRICITY   = .00011047
INCLINATION    = 43.0004
RA_OF_ASC_NODE = 123.8601
ARG_OF_PERICENTER = 267.2606
MEAN_ANOMALY   = 273.8016

EPHEMERIS_TYPE = 0
CLASSIFICATION_TYPE = U
NORAD_CAT_ID   = 67049
ELEMENT_SET_NO = 999
REV_AT_EPOCH   = 183
BSTAR          = -.97180972E-2
MEAN_MOTION_DOT = -.1921721E-1
MEAN_MOTION_DDOT = 0

